QZS-3 (MICHIBIKI-3)     
1 42917U 17048A   26196.00550986 -.00000357  00000+0  00000+0 0  9994
2 42917   0.0657 214.5440 0002510 272.0036 295.3328  1.00272188 32535
AMAZONAS 5              
1 42934U 17053A   26195.04791514 -.00000288  00000+0  00000+0 0  9999
2 42934   0.0321 328.7293 0001029 114.1312 165.2908  1.00268891 32314
ASIASAT 9               
1 42942U 17057A   26196.22471765 -.00000369  00000+0  00000+0 0  9996
2 42942   0.0138  42.4636 0002356  64.0328  29.5821  1.00269930 32146
INTELSAT 37E (IS-37E)   
1 42950U 17059A   26196.12580787 -.00000150  00000+0  00000+0 0  9999
2 42950   0.0178  44.9424 0002588  78.6131 196.6933  1.00269756 32349
BSAT-4A                 
1 42951U 17059B   26194.51146824 -.00000354  00000+0  00000+0 0  9997
2 42951   0.0357  21.9752 0003393  56.7278 146.6395  1.00272286 32060
QZS-4 (MICHIBIKI-4)     
1 42965U 17062A   26193.73476241 -.00000331  00000+0  00000+0 0  9993
2 42965  40.0933 343.1604 0747458 268.5188  82.4158  1.00290649 32050
SES-11 (ECHOSTAR 105)   
1 42967U 17063A   26196.07934558 -.00000098  00000+0  00000+0 0  9996
2 42967   0.0379 298.3734 0002661 164.9020 113.2623  1.00271055 32006
KOREASAT 5A             
1 42984U 17067A   26196.07421034 -.00000367  00000+0  00000+0 0  9998
2 42984   0.0136  52.4701 0000724  70.3771 309.9371  1.00269881 31805
ALCOMSAT 1              
1 43039U 17078A   26196.12442122 -.00000196  00000+0  00000+0 0  9999
2 43039   0.0526 263.1385 0002221 207.3922 202.4164  1.00268723 31578
SBIRS GEO-3 (USA 282)   
1 43162U 18009A   26195.24232928  .00000121  00000+0  00000+0 0  9991
2 43162   2.2038  13.3520 0001710  99.8132 106.7887  1.00271888 31116
AL YAH 3                
1 43174U 18012A   26196.12537455 -.00000166  00000+0  00000+0 0  9999
2 43174   1.6218  82.7676 0003533  30.3258 204.9048  1.00270694 31123
SES-14                  
1 43175U 18012B   26195.19321600 -.00000285  00000+0  00000+0 0  9991
2 43175   0.0126  28.6879 0000801  93.5684 191.8510  1.00270728  7295
GOES 17                 
1 43226U 18022A   26196.11163559 -.00000192  00000+0  00000+0 0  9996
2 43226   1.0066  85.2588 0000546  80.6796  77.7183  1.00271073 30703
HISPASAT 30W-6          
1 43228U 18023A   26195.12538163 -.00000222  00000+0  00000+0 0  9990
2 43228   0.0444  50.2849 0005130  39.9946 216.8713  1.00270644 30678
SUPERBIRD-B3            
1 43271U 18033A   26196.20183799 -.00000102  00000+0  00000+0 0  9997
2 43271   0.0135  47.7260 0001018  79.7447  40.2472  1.00270733 30344
HYLAS 4                 
1 43272U 18033B   26195.26728939 -.00000240  00000+0  00000+0 0  9997
2 43272   0.0212 297.9158 0000951 192.8371 224.1076  1.00273252 30335
IRNSS-1I                
1 43286U 18035A   26196.01759756  .00000056  00000+0  00000+0 0  9993
2 43286  28.8178  73.7623 0018506 178.3910 102.1108  1.00271572 30355
USA 283                 
1 43339U 18036A   26194.51831527  .00000000  00000+0  00000+0 0  9992
2 43339   0.0181  51.7317 0001010 164.1991  36.1561  1.00270146 25551
COSMOS 2526             
1 43432U 18037A   26196.01215684 -.00000354  00000+0  00000+0 0  9997
2 43432   0.0358 106.6288 0000822 157.1060 161.5486  1.00268298 30232
APSTAR-6C               
1 43450U 18041A   26195.67586814 -.00000326  00000+0  00000+0 0  9998
2 43450   0.0593 289.3735 0000779 296.5328  83.9303  1.00273807 30085
BANGABANDHUSAT-1        
1 43463U 18044A   26196.01033683 -.00000371  00000+0  00000+0 0  9995
2 43463   0.0228  95.1836 0001678  30.9552 289.5356  1.00270146 29989
SES-12                  
1 43488U 18049A   26196.14816800 -.00000278  00000+0  00000+0 0  9997
2 43488   0.0109  16.8424 0000822 236.1009 188.3882  1.00269351 29700
FENGYUN 2H              
1 43491U 18050A   26196.07375463 -.00000138  00000+0  00000+0 0  9995
2 43491   3.1003  78.7376 0002319 134.4195 185.4544  1.00267153 29715
BEIDOU-2 IGSO-7         
1 43539U 18057A   26182.89122331 -.00000033  00000+0  00000+0 0  9998
2 43539  55.1981 162.9292 0104946 237.8611 308.6338  1.00246939 29273
TELSTAR 19V             
1 43562U 18059A   26195.76045308 -.00000288  00000+0  00000+0 0  9996
2 43562   0.0283 145.1875 0002641 341.1065  17.0859  1.00272438 29423
TELKOM 4 (MERAH PUTIH)  
1 43587U 18064A   26195.29528286 -.00000351  00000+0  00000+0 0  9999
2 43587   0.0219  81.5910 0000994  39.4509  25.4085  1.00269319 29159
TELSTAR 18V             
1 43611U 18069A   26194.52037462 -.00000298  00000+0  00000+0 0  9998
2 43611   0.0151 318.0250 0001663 158.6111 140.0899  1.00269998 28906
AZERSPACE 2 (IS-38)     
1 43632U 18074A   26196.13828794  .00000127  00000+0  00000+0 0  9992
2 43632   0.0171  54.9155 0001252  66.1262 266.8328  1.00270804 28727
HORIZONS-3E             
1 43633U 18074B   26194.64002854 -.00000035  00000+0  00000+0 0  9997
2 43633   0.0498 224.9289 0000940  53.6947  52.2963  1.00270118 28608
AEHF-4 (USA 288)        
1 43651U 18079A   26196.04454284 -.00000284  00000+0  00000+0 0  9992
2 43651   1.4399   6.2949 0058538 353.9222 241.1575  1.00276372 28577
BEIDOU-3 G1             
1 43683U 18085A   26196.16108138 -.00000120  00000+0  00000+0 0  9990
2 43683   2.9363  96.6113 0008007 356.5341  57.8180  1.00272490 28348
